[{"OBJECT_NAME":"PROTOMETHEE","OBJECT_ID":"2023-174BT","EPOCH":"2026-03-09T23:28:08.029344","MEAN_MOTION":15.30202663,"ECCENTRICITY":0.00088339,"INCLINATION":97.3826,"RA_OF_ASC_NODE":147.9552,"ARG_OF_PERICENTER":148.5993,"MEAN_ANOMALY":211.5776,"EPHEMERIS_TYPE":0,"CLASSIFICATION_TYPE":"U","NORAD_CAT_ID":58321,"ELEMENT_SET_NO":999,"REV_AT_EPOCH":12979,"BSTAR":0.00015715731,"MEAN_MOTION_DOT":4.52e-5,"MEAN_MOTION_DDOT":0},{"OBJECT_NAME":"STARLINK-36057","OBJECT_ID":"2025-283G","EPOCH":"2026-03-09T05:57:19.221696","MEAN_MOTION":15.30188592,"ECCENTRICITY":0.0001141,"INCLINATION":53.1603,"RA_OF_ASC_NODE":26.428,"ARG_OF_PERICENTER":79.9322,"MEAN_ANOMALY":280.1808,"EPHEMERIS_TYPE":0,"CLASSIFICATION_TYPE":"U","NORAD_CAT_ID":66884,"ELEMENT_SET_NO":999,"REV_AT_EPOCH":1577,"BSTAR":0.0011441646,"MEAN_MOTION_DOT":0.00033669,"MEAN_MOTION_DDOT":0}]
